SENTINEL-1A             
1 39634U 14016A   17345.79020201 -.00000159  00000-0 -24014-4 0  9990
2 39634  98.1812 350.8984 0001350  73.1196 287.0158 14.59198123196593
